GLOBALSTAR M068         
1 32266U 07048D   24206.23737992 -.00000091  00000+0  73159-4 0  9993
2 32266  51.9858 221.9357 0001008 139.9100 300.4977 12.62794861776419
GLOBALSTAR M079         
1 37188U 10054A   24205.89463243 -.00000099  00000+0  23955-4 0  9995
2 37188  52.0047  59.1607 0000622  58.7854  69.2127 12.62261773634997
GLOBALSTAR M074         
1 37189U 10054B   24205.66466306 -.00000086  00000+0  10007-3 0  9993
2 37189  52.0024  59.2350 0000836  72.2789 329.5801 12.62270613635573
GLOBALSTAR M076         
1 37190U 10054C   24205.86601395 -.00000071  00000+0  18108-3 0  9990
2 37190  52.0036  58.7636 0000952  48.4736  68.6999 12.62253978635311
GLOBALSTAR M077         
1 37191U 10054D   24205.94250233 -.00000101  00000+0  15099-4 0  9992
2 37191  52.0088  15.2915 0000897  91.4153  73.8782 12.62261450635699
GLOBALSTAR M075         
1 37192U 10054E   24205.88040074 -.00000070  00000+0  18613-3 0  9995
2 37192  51.9949 101.1592 0000575  54.6495  68.1332 12.62262005634541
GLOBALSTAR M073         
1 37193U 10054F   24205.97083463 -.00000094  00000+0  52808-4 0  9996
2 37193  52.0082  14.4536 0000851  80.0105  92.8837 12.62267285636433
GLOBALSTAR M083         
1 37739U 11033A   24205.82398249 -.00000071  00000+0  18482-3 0  9999
2 37739  51.9879 324.0799 0000604 125.8831  41.0095 12.62262642605386
GLOBALSTAR M088         
1 37740U 11033B   24205.55965177 -.00000089  00000+0  81928-4 0  9996
2 37740  51.9709 230.6526 0000231 196.2367 329.1175 12.62265566600890
GLOBALSTAR M091         
1 37741U 11033C   24205.93747462 -.00000105  00000+0 -81276-5 0  9991
2 37741  51.9968 192.4704 0000228 239.1697 142.3473 12.62264963601730
GLOBALSTAR M085         
1 37742U 11033D   24205.84774670 -.00000089  00000+0  84039-4 0  9992
2 37742  51.9858 144.0702 0000195  12.9613  22.0577 12.62263583602230
GLOBALSTAR M081         
1 37743U 11033E   24206.20354821 -.00000097  00000+0  37734-4 0  9995
2 37743  51.9947 145.5721 0000398 351.8288 100.1609 12.62267042602806
GLOBALSTAR M089         
1 37744U 11033F   24206.18045740 -.00000061  00000+0  24023-3 0  9997
2 37744  51.9930  99.9350 0000944  43.9808 121.5435 12.62266287603516
GLOBALSTAR M084         
1 38040U 11080A   24205.79542038 -.00000075  00000+0  15812-3 0  9998
2 38040  52.0028 328.2196 0000920  94.1513  62.1347 12.62264532581199
GLOBALSTAR M080         
1 38041U 11080B   24205.85111220 -.00000080  00000+0  13528-3 0  9999
2 38041  52.0082 329.5410 0000831  77.7646  91.9998 12.62263065581325
GLOBALSTAR M082         
1 38042U 11080C   24205.70508403 -.00000055  00000+0  27022-3 0  9993
2 38042  52.0080 285.3987 0000919 159.3967   6.3854 12.62264266582014
GLOBALSTAR M092         
1 38043U 11080D   24205.91344775 -.00000073  00000+0  17224-3 0  9990
2 38043  52.0103  15.1205 0000969  90.5457  62.7420 12.62264109580499
GLOBALSTAR M090         
1 38044U 11080E   24205.55587850 -.00000054  00000+0  27676-3 0  9995
2 38044  51.9887 280.0855 0000630 151.7353 295.2833 12.62265215582112
GLOBALSTAR M086         
1 38045U 11080F   24206.20259584 -.00000072  00000+0  17651-3 0  9991
2 38045  51.9897 278.6405 0000426 311.0372  76.9796 12.62264728582247
GLOBALSTAR M097         
1 39072U 13005A   24206.14421566 -.00000119  00000+0 -84935-4 0  9998
2 39072  52.0020 193.0326 0000178 282.1589  77.9257 12.62269105529464
GLOBALSTAR M093         
1 39073U 13005B   24205.87976627 -.00000104  00000+0 -27441-6 0  9996
2 39073  51.9785 187.6626 0000299 283.4193  76.6640 12.62276188529306
GLOBALSTAR M094         
1 39074U 13005C   24205.40465932 -.00000079  00000+0  13756-3 0  9999
2 39074  51.9960 103.1628 0000511  25.4390 334.6501 12.62286543530858
GLOBALSTAR M096         
1 39075U 13005D   24205.89303402 -.00000095  00000+0  51338-4 0  9993
2 39075  52.0059 149.9339 0000211 322.7526  37.3326 12.62267741529835
GLOBALSTAR M078         
1 39076U 13005E   24206.18345050 -.00000101  00000+0  16245-4 0  9998
2 39076  51.9849 234.0086 0001155 163.1707 196.9198 12.62273464528705
GLOBALSTAR M095         
1 39077U 13005F   24205.49692679 -.00000090  00000+0  74226-4 0  9994
2 39077  51.9776 233.4572 0000752 194.8954 165.1891 12.62262683528625
GLOBALSTAR M087         
1 52888U 22064A   24206.17127375 -.00000064  00000+0  12161-3 0  9996
2 52888  51.9762  79.4193 0010078  96.5325 263.6723 13.37579316102470
